STARLINK-2683           
1 48462U 21040AL  25355.22903218  .00000078  00000+0  24104-4 0  9997
2 48462  53.0536 184.1201 0001521  87.4878 272.6285 15.06400057254669
STARLINK-2686           
1 48464U 21040AN  25355.54598188  .00001210  00000+0  10009-3 0  9997
2 48464  53.0534 182.4197 0001550  95.3022 264.8144 15.06399934254719
STARLINK-2681           
1 48465U 21040AP  25355.22530615  .00001056  00000+0  89775-4 0  9999
2 48465  53.0542 183.8584 0001535  94.6978 265.4186 15.06397762254674
STARLINK-2687           
1 48466U 21040AQ  25355.54231574  .00002443  00000+0  18288-3 0  9998
2 48466  53.0538 182.4329 0001565  86.0133 274.1034 15.06398418254727
STARLINK-2659           
1 48467U 21040AR  25355.50175161  .00000304  00000+0  39283-4 0  9997
2 48467  53.0531 182.6156 0001634  92.6732 267.4444 15.06401461254718
STARLINK-2685           
1 48468U 21040AS  25355.54966404  .00004043  00000+0  29026-3 0  9997
2 48468  53.0544 182.4040 0001704  89.8598 270.2586 15.06387136254721
STARLINK-2661           
1 48469U 21040AT  25355.49808014  .00000907  00000+0  79855-4 0  9995
2 48469  53.0547 182.6329 0001702 108.3632 251.7542 15.06380652254712
STARLINK-2675           
1 48470U 21040AU  25354.93048123  .00000381  00000+0  44509-4 0  9996
2 48470  53.0531 185.5270 0001621  91.6209 268.4965 15.06393109254612
STARLINK-2684           
1 48471U 21040AV  25355.55336117 -.00002676  00000+0 -16075-3 0  9996
2 48471  53.0542 182.3848 0001259  92.8468 267.2665 15.06410883254712
STARLINK-2722           
1 48472U 21040AW  25355.53492770  .00000511  00000+0  53202-4 0  9991
2 48472  53.0532 182.4707 0001753  91.9522 268.1668 15.06397347254708
STARLINK-2658           
1 48473U 21040AX  25355.24006876  .00001539  00000+0  12224-3 0  9997
2 48473  53.0537 183.7921 0001828  97.0182 263.1015 15.06390031254667
STARLINK-2697           
1 48474U 21040AY  25355.53861390  .00003386  00000+0  24619-3 0  9993
2 48474  53.0537 182.4486 0001569  99.4633 260.6534 15.06390373254701
STARLINK-2619           
1 48475U 21040AZ  25355.58335648  .00255978  00000+0  14438-2 0  9994
2 48475  53.0210 102.1394 0007725 322.7525 336.9611 15.77874178  5973
STARLINK-2728           
1 48478U 21040BC  25355.25110906  .00000807  00000+0  73085-4 0  9993
2 48478  53.0543 183.7399 0001544  96.0433 264.0731 15.06397441254668
STARLINK-2755           
1 48479U 21040BD  25354.91569434 -.00000440  00000+0 -10653-4 0  9997
2 48479  53.0532 185.2467 0001333  91.3568 268.7573 15.06395956254612
STARLINK-2706           
1 48481U 21040BF  25354.83739846  .00000177  00000+0  30785-4 0  9990
2 48481  53.0528 195.8769 0001471  89.7223 270.3934 15.06398593254456
