[{"OBJECT_NAME":"STARLINK-2683","OBJECT_ID":"2021-040AL","EPOCH":"2025-12-21T05:29:48.380352","MEAN_MOTION":15.06400057,"ECCENTRICITY":0.0001521,"INCLINATION":53.0536,"RA_OF_ASC_NODE":184.1201,"ARG_OF_PERICENTER":87.4878,"MEAN_ANOMALY":272.6285,"EPHEMERIS_TYPE":0,"CLASSIFICATION_TYPE":"U","NORAD_CAT_ID":48462,"ELEMENT_SET_NO":999,"REV_AT_EPOCH":25466,"BSTAR":2.4104e-5,"MEAN_MOTION_DOT":7.8e-7,"MEAN_MOTION_DDOT":0},{"OBJECT_NAME":"STARLINK-2686","OBJECT_ID":"2021-040AN","EPOCH":"2025-12-21T13:06:12.834432","MEAN_MOTION":15.06399934,"ECCENTRICITY":0.00015501,"INCLINATION":53.0534,"RA_OF_ASC_NODE":182.4197,"ARG_OF_PERICENTER":95.3022,"MEAN_ANOMALY":264.8144,"EPHEMERIS_TYPE":0,"CLASSIFICATION_TYPE":"U","NORAD_CAT_ID":48464,"ELEMENT_SET_NO":999,"REV_AT_EPOCH":25471,"BSTAR":0.00010008902,"MEAN_MOTION_DOT":1.21e-5,"MEAN_MOTION_DDOT":0},{"OBJECT_NAME":"STARLINK-2681","OBJECT_ID":"2021-040AP","EPOCH":"2025-12-21T05:24:26.451360","MEAN_MOTION":15.06397762,"ECCENTRICITY":0.0001535,"INCLINATION":53.0542,"RA_OF_ASC_NODE":183.8584,"ARG_OF_PERICENTER":94.6978,"MEAN_ANOMALY":265.4186,"EPHEMERIS_TYPE":0,"CLASSIFICATION_TYPE":"U","NORAD_CAT_ID":48465,"ELEMENT_SET_NO":999,"REV_AT_EPOCH":25467,"BSTAR":8.9775e-5,"MEAN_MOTION_DOT":1.056e-5,"MEAN_MOTION_DDOT":0},{"OBJECT_NAME":"STARLINK-2687","OBJECT_ID":"2021-040AQ","EPOCH":"2025-12-21T13:00:56.079936","MEAN_MOTION":15.06398418,"ECCENTRICITY":0.00015656,"INCLINATION":53.0538,"RA_OF_ASC_NODE":182.4329,"ARG_OF_PERICENTER":86.0133,"MEAN_ANOMALY":274.1034,"EPHEMERIS_TYPE":0,"CLASSIFICATION_TYPE":"U","NORAD_CAT_ID":48466,"ELEMENT_SET_NO":999,"REV_AT_EPOCH":25472,"BSTAR":0.00018287693,"MEAN_MOTION_DOT":2.443e-5,"MEAN_MOTION_DDOT":0},{"OBJECT_NAME":"STARLINK-2659","OBJECT_ID":"2021-040AR","EPOCH":"2025-12-21T12:02:31.339104","MEAN_MOTION":15.06401461,"ECCENTRICITY":0.00016344,"INCLINATION":53.0531,"RA_OF_ASC_NODE":182.6156,"ARG_OF_PERICENTER":92.6732,"MEAN_ANOMALY":267.4444,"EPHEMERIS_TYPE":0,"CLASSIFICATION_TYPE":"U","NORAD_CAT_ID":48467,"ELEMENT_SET_NO":999,"REV_AT_EPOCH":25471,"BSTAR":3.9283144e-5,"MEAN_MOTION_DOT":3.04e-6,"MEAN_MOTION_DDOT":0},{"OBJECT_NAME":"STARLINK-2685","OBJECT_ID":"2021-040AS","EPOCH":"2025-12-21T13:11:30.973056","MEAN_MOTION":15.06387136,"ECCENTRICITY":0.00017048,"INCLINATION":53.0544,"RA_OF_ASC_NODE":182.404,"ARG_OF_PERICENTER":89.8598,"MEAN_ANOMALY":270.2586,"EPHEMERIS_TYPE":0,"CLASSIFICATION_TYPE":"U","NORAD_CAT_ID":48468,"ELEMENT_SET_NO":999,"REV_AT_EPOCH":25472,"BSTAR":0.00029026192,"MEAN_MOTION_DOT":4.043e-5,"MEAN_MOTION_DDOT":0},{"OBJECT_NAME":"STARLINK-2661","OBJECT_ID":"2021-040AT","EPOCH":"2025-12-21T11:57:14.124096","MEAN_MOTION":15.06380652,"ECCENTRICITY":0.00017022,"INCLINATION":53.0547,"RA_OF_ASC_NODE":182.6329,"ARG_OF_PERICENTER":108.3632,"MEAN_ANOMALY":251.7542,"EPHEMERIS_TYPE":0,"CLASSIFICATION_TYPE":"U","NORAD_CAT_ID":48469,"ELEMENT_SET_NO":999,"REV_AT_EPOCH":25471,"BSTAR":7.9855163e-5,"MEAN_MOTION_DOT":9.07e-6,"MEAN_MOTION_DDOT":0},{"OBJECT_NAME":"STARLINK-2675","OBJECT_ID":"2021-040AU","EPOCH":"2025-12-20T22:19:53.578272","MEAN_MOTION":15.06393109,"ECCENTRICITY":0.0001621,"INCLINATION":53.0531,"RA_OF_ASC_NODE":185.527,"ARG_OF_PERICENTER":91.6209,"MEAN_ANOMALY":268.4965,"EPHEMERIS_TYPE":0,"CLASSIFICATION_TYPE":"U","NORAD_CAT_ID":48470,"ELEMENT_SET_NO":999,"REV_AT_EPOCH":25461,"BSTAR":4.4509e-5,"MEAN_MOTION_DOT":3.81e-6,"MEAN_MOTION_DDOT":0},{"OBJECT_NAME":"STARLINK-2684","OBJECT_ID":"2021-040AV","EPOCH":"2025-12-21T13:16:50.405088","MEAN_MOTION":15.06410883,"ECCENTRICITY":0.00012598,"INCLINATION":53.0542,"RA_OF_ASC_NODE":182.3848,"ARG_OF_PERICENTER":92.8468,"MEAN_ANOMALY":267.2665,"EPHEMERIS_TYPE":0,"CLASSIFICATION_TYPE":"U","NORAD_CAT_ID":48471,"ELEMENT_SET_NO":999,"REV_AT_EPOCH":25471,"BSTAR":-0.00016074526,"MEAN_MOTION_DOT":-2.676e-5,"MEAN_MOTION_DDOT":0},{"OBJECT_NAME":"STARLINK-2722","OBJECT_ID":"2021-040AW","EPOCH":"2025-12-21T12:50:17.753280","MEAN_MOTION":15.06397347,"ECCENTRICITY":0.00017534,"INCLINATION":53.0532,"RA_OF_ASC_NODE":182.4707,"ARG_OF_PERICENTER":91.9522,"MEAN_ANOMALY":268.1668,"EPHEMERIS_TYPE":0,"CLASSIFICATION_TYPE":"U","NORAD_CAT_ID":48472,"ELEMENT_SET_NO":999,"REV_AT_EPOCH":25470,"BSTAR":5.3202436e-5,"MEAN_MOTION_DOT":5.11e-6,"MEAN_MOTION_DDOT":0},{"OBJECT_NAME":"STARLINK-2658","OBJECT_ID":"2021-040AX","EPOCH":"2025-12-21T05:45:41.940864","MEAN_MOTION":15.06390031,"ECCENTRICITY":0.0001828,"INCLINATION":53.0537,"RA_OF_ASC_NODE":183.7921,"ARG_OF_PERICENTER":97.0182,"MEAN_ANOMALY":263.1015,"EPHEMERIS_TYPE":0,"CLASSIFICATION_TYPE":"U","NORAD_CAT_ID":48473,"ELEMENT_SET_NO":999,"REV_AT_EPOCH":25466,"BSTAR":0.00012224,"MEAN_MOTION_DOT":1.539e-5,"MEAN_MOTION_DDOT":0},{"OBJECT_NAME":"STARLINK-2697","OBJECT_ID":"2021-040AY","EPOCH":"2025-12-21T12:55:36.240960","MEAN_MOTION":15.06390373,"ECCENTRICITY":0.00015697,"INCLINATION":53.0537,"RA_OF_ASC_NODE":182.4486,"ARG_OF_PERICENTER":99.4633,"MEAN_ANOMALY":260.6534,"EPHEMERIS_TYPE":0,"CLASSIFICATION_TYPE":"U","NORAD_CAT_ID":48474,"ELEMENT_SET_NO":999,"REV_AT_EPOCH":25470,"BSTAR":0.00024618628,"MEAN_MOTION_DOT":3.386e-5,"MEAN_MOTION_DDOT":0},{"OBJECT_NAME":"STARLINK-2619","OBJECT_ID":"2021-040AZ","EPOCH":"2025-12-21T14:00:01.999872","MEAN_MOTION":15.77874178,"ECCENTRICITY":0.0007725,"INCLINATION":53.021,"RA_OF_ASC_NODE":102.1394,"ARG_OF_PERICENTER":322.7525,"MEAN_ANOMALY":336.9611,"EPHEMERIS_TYPE":0,"CLASSIFICATION_TYPE":"U","NORAD_CAT_ID":48475,"ELEMENT_SET_NO":999,"REV_AT_EPOCH":597,"BSTAR":0.0014437763,"MEAN_MOTION_DOT":0.00255978,"MEAN_MOTION_DDOT":0},{"OBJECT_NAME":"STARLINK-2728","OBJECT_ID":"2021-040BC","EPOCH":"2025-12-21T06:01:35.822784","MEAN_MOTION":15.06397441,"ECCENTRICITY":0.0001544,"INCLINATION":53.0543,"RA_OF_ASC_NODE":183.7399,"ARG_OF_PERICENTER":96.0433,"MEAN_ANOMALY":264.0731,"EPHEMERIS_TYPE":0,"CLASSIFICATION_TYPE":"U","NORAD_CAT_ID":48478,"ELEMENT_SET_NO":999,"REV_AT_EPOCH":25466,"BSTAR":7.3085e-5,"MEAN_MOTION_DOT":8.07e-6,"MEAN_MOTION_DDOT":0},{"OBJECT_NAME":"STARLINK-2755","OBJECT_ID":"2021-040BD","EPOCH":"2025-12-20T21:58:35.990976","MEAN_MOTION":15.06395956,"ECCENTRICITY":0.0001333,"INCLINATION":53.0532,"RA_OF_ASC_NODE":185.2467,"ARG_OF_PERICENTER":91.3568,"MEAN_ANOMALY":268.7573,"EPHEMERIS_TYPE":0,"CLASSIFICATION_TYPE":"U","NORAD_CAT_ID":48479,"ELEMENT_SET_NO":999,"REV_AT_EPOCH":25461,"BSTAR":-1.0653e-5,"MEAN_MOTION_DOT":-4.4e-6,"MEAN_MOTION_DDOT":0},{"OBJECT_NAME":"STARLINK-2706","OBJECT_ID":"2021-040BF","EPOCH":"2025-12-20T20:05:51.226944","MEAN_MOTION":15.06398593,"ECCENTRICITY":0.00014713,"INCLINATION":53.0528,"RA_OF_ASC_NODE":195.8769,"ARG_OF_PERICENTER":89.7223,"MEAN_ANOMALY":270.3934,"EPHEMERIS_TYPE":0,"CLASSIFICATION_TYPE":"U","NORAD_CAT_ID":48481,"ELEMENT_SET_NO":999,"REV_AT_EPOCH":25445,"BSTAR":3.0785181e-5,"MEAN_MOTION_DOT":1.77e-6,"MEAN_MOTION_DDOT":0}]
